STARLINK-3871           
1 52496U 22049AX  23234.37057805  .00001717  00000+0  12596-3 0  9993
2 52496  53.2152 260.4847 0001306  86.6561 273.4580 15.08841653 72019
STARLINK-3884           
1 52497U 22049AY  23234.60747721  .00001678  00000+0  12349-3 0  9995
2 52497  53.2173 264.4199 0001421  88.8470 271.2685 15.08845826 72140
STARLINK-3925           
1 52498U 22049AZ  23234.45015973  .00001218  00000+0  94601-4 0  9998
2 52498  53.2161 255.1253 0001323  87.7342 272.3801 15.08840484 72252
STARLINK-3894           
1 52499U 22049BA  23234.47132249  .00001384  00000+0  10500-3 0  9996
2 52499  53.2168 265.0328 0001224  90.7924 269.3208 15.08839644 72122
STARLINK-3866           
1 52500U 22049BB  23234.11528498  .00001183  00000+0  92390-4 0  9990
2 52500  53.2160 256.6289 0001255  89.6664 270.4472 15.08836027 72208
STARLINK-3907           
1 52501U 22049BC  23234.11801885  .00000720  00000+0  63310-4 0  9991
2 52501  53.2169 266.4195 0001283  99.4195 260.6942 15.08834902 72070
STARLINK-3912           
1 52502U 22049BD  23235.03896851  .00000295  00000+0  36631-4 0  9994
2 52502  53.2153 252.5098 0001336  94.6291 265.4854 15.08837227 72343
STARLINK-3861           
1 52503U 22049BE  23235.04360627  .00000094  00000+0  23973-4 0  9995
2 52503  53.2158 252.5103 0001226  88.5948 271.5184 15.08836475 72343
STARLINK-3951           
1 52533U 22051A   23233.65070307  .00000461  00000+0  47052-4 0  9991
2 52533  53.2191 348.8657 0000876  46.8536 313.2529 15.08834080 70958
STARLINK-3952           
1 52534U 22051B   23234.50444860  .00000599  00000+0  55727-4 0  9996
2 52534  53.2172 344.8890 0001473  61.5496 298.5644 15.08836415 71088
STARLINK-3958           
1 52535U 22051C   23234.50076780  .00000553  00000+0  52812-4 0  9991
2 52535  53.2188 344.9037 0001364  74.8504 285.2639 15.08833853 71086
STARLINK-3964           
1 52536U 22051D   23234.49709331  .00004414  00000+0  29530-3 0  9995
2 52536  53.2197 344.9172 0000974  59.4419 300.6669 15.08829669 71082
STARLINK-3897           
1 52537U 22051E   23234.49436125  .00000669  00000+0  60112-4 0  9994
2 52537  53.2202 344.9390 0001033  92.0163 268.0947 15.08839075 71086
STARLINK-3933           
1 52538U 22051F   23234.48603752 -.00006414  00000+0 -38497-3 0  9992
2 52538  53.2195 344.9730 0001178 102.6740 257.4384 15.08867195 71086
STARLINK-3757           
1 52539U 22051G   23234.48972419  .00000961  00000+0  78475-4 0  9992
2 52539  53.2186 344.9505 0001289  86.2799 273.8340 15.08837146 71088
STARLINK-3940           
1 52540U 22051H   23234.47500281  .00000023  00000+0  19507-4 0  9997
2 52540  53.2195 345.0179 0001154  94.6203 265.4921 15.08839461 71087
STARLINK-3845           
1 52541U 22051J   23234.50951574 -.00001417  00000+0 -70953-4 0  9999
2 52541  53.2196 349.8594 0001629 129.6355 230.4781 15.08831736 71012
STARLINK-3937           
1 52542U 22051K   23234.47132639  .00000981  00000+0  79726-4 0  9999
2 52542  53.2192 345.0340 0001007  67.5038 292.6061 15.08833722 71089
STARLINK-3926           
1 52543U 22051L   23233.62124197  .00000473  00000+0  47779-4 0  9995
2 52543  53.2208 348.8535 0001332  95.4831 264.6313 15.08836329 70957
STARLINK-3944           
1 52544U 22051M   23233.50854270 -.00001130  00000+0 -52932-4 0  9995
2 52544  53.2171 354.3721 0001220  85.6846 274.4285 15.08835728 70868
STARLINK-3939           
1 52545U 22051N   23233.61755990 -.00000199  00000+0  55918-5 0  9998
2 52545  53.2182 348.8655 0001257 103.3488 256.7644 15.08839360 70953
STARLINK-3948           
1 52546U 22051P   23234.49336065  .00000922  00000+0  76025-4 0  9998
2 52546  53.2183 344.5452 0001207  67.5663 292.5457 15.08833097 71091
STARLINK-3869           
1 52547U 22051Q   23234.50582182  .00001915  00000+0  13838-3 0  9999
2 52547  53.2193 349.8815 0001151 101.8370 258.2751 15.08838414 71015
STARLINK-3931           
1 52548U 22051R   23234.51548283 -.00000223  00000+0  40968-5 0  9993
2 52548  53.2180 344.8378 0000997  62.9354 297.1739 15.08839908 71092
STARLINK-3935           
1 52549U 22051S   23234.46764291 -.00003007  00000+0 -17088-3 0  9996
2 52549  53.2186 345.0540 0001271  87.5015 272.6123 15.08846501 71087
STARLINK-3965           
1 52550U 22051T   23234.52282708  .00002102  00000+0  15004-3 0  9992
2 52550  53.2185 344.8068 0001273  72.1039 288.0092 15.08855613 71099
STARLINK-3969           
1 52551U 22051U   23233.53660424  .00000731  00000+0  64026-4 0  9993
2 52551  53.2178 349.2329 0001018  84.6209 275.4900 15.08834977 70946
STARLINK-3966           
1 52552U 22051V   23234.51275770  .00003300  00000+0  22527-3 0  9993
2 52552  53.2178 344.8584 0001021  75.8231 284.2875 15.08846893 71098
STARLINK-3858           
1 52553U 22051W   23234.65900263  .00001650  00000+0  12175-3 0  9995
2 52553  53.2179 344.1955 0001306  75.8628 284.2509 15.08841481 71116
STARLINK-3770           
1 52554U 22051X   23234.49848455 -.00002163  00000+0 -11790-3 0  9996
2 52554  53.2194 349.9101 0001202  95.4183 264.6947 15.08821305 71019
STARLINK-3949           
1 52555U 22051Y   23234.52012264  .00000617  00000+0  56846-4 0  9994
2 52555  53.2181 344.8291 0001186  57.0942 303.0164 15.08835072 71091
STARLINK-3763           
1 52556U 22051Z   23234.48954603 -.00000149  00000+0  82740-5 0  9996
2 52556  53.2186 338.1130 0001455  78.2577 281.8582 15.15736158 71183
STARLINK-3943           
1 52557U 22051AA  23234.50812708  .00000137  00000+0  26680-4 0  9995
2 52557  53.2184 344.8746 0001692  50.1329 309.9812 15.08839116 71094
STARLINK-3954           
1 52558U 22051AB  23234.50903528  .00001026  00000+0  82505-4 0  9993
2 52558  53.2182 334.8639 0001269 103.4411 256.6723 15.08846208 71221
STARLINK-3953           
1 52559U 22051AC  23234.52010928  .00000969  00000+0  78983-4 0  9999
2 52559  53.2191 334.9985 0001236 101.5327 258.5804 15.08836522 71225
STARLINK-3956           
1 52560U 22051AD  23234.50535990 -.00000077  00000+0  13273-4 0  9992
2 52560  53.2192 334.8830 0001142  92.8174 267.2949 15.08852302 71225
STARLINK-3955           
1 52561U 22051AE  23234.48742678  .00000349  00000+0  40032-4 0  9997
2 52561  53.2179 349.9677 0001059  69.7375 290.3731 15.08834898 71013
STARLINK-3957           
1 52562U 22051AF  23233.50440209  .00001594  00000+0  11823-3 0  9993
2 52562  53.2180 339.3739 0001272  91.2760 268.8378 15.08839076 71079
STARLINK-3942           
1 52563U 22051AG  23234.49110028  .00000087  00000+0  23557-4 0  9990
2 52563  53.2181 349.9435 0001237  93.4685 266.6449 15.08841089 71018
STARLINK-3959           
1 52564U 22051AH  23234.81589291 -.00001145  00000+0 -53831-4 0  9995
2 52564  53.2179 348.4977 0001175  97.4185 262.6940 15.08853016 71061
STARLINK-3911           
1 52565U 22051AJ  23234.76663038  .00004401  00000+0  29431-3 0  9996
2 52565  53.2182 333.7085 0001309 100.8658 259.2481 15.08858011 71260
STARLINK-3938           
1 52566U 22051AK  23234.46166479  .00002243  00000+0  15900-3 0  9999
2 52566  53.2190 350.0833 0001294  61.9847 298.1276 15.08833884 71011
STARLINK-3929           
1 52567U 22051AL  23234.69303564  .00000518  00000+0  50631-4 0  9997
2 52567  53.2191 334.0421 0001446 109.0934 251.0215 15.08847487 71259
STARLINK-3930           
1 52568U 22051AM  23234.48328166  .00001849  00000+0  13424-3 0  9996
2 52568  53.2181 334.9790 0001109  88.8460 271.2659 15.08839646 71222
STARLINK-3927           
1 52569U 22051AN  23234.49062634 -.00010729  00000+0 -65611-3 0  9997
2 52569  53.2190 334.9492 0000946  67.6191 292.4902 15.08890743 71227
STARLINK-3924           
1 52570U 22051AP  23234.47960328  .00000718  00000+0  63196-4 0  9996
2 52570  53.2191 334.9993 0001205  54.7147 305.3958 15.08840770 71223
STARLINK-3901           
1 52574U 22051AQ  23234.48696094  .00001162  00000+0  91109-4 0  9996
2 52574  53.2193 334.9664 0001142  96.6083 263.5039 15.08839211 71221
STARLINK-3920           
1 52575U 22051AR  23234.47592461 -.00000441  00000+0 -96472-5 0  9999
2 52575  53.2178 335.0120 0001186  82.5241 277.5886 15.08837444 71223
STARLINK-3932           
1 52576U 22051AS  23234.46951755  .00001404  00000+0  10628-3 0  9999
2 52576  53.2184 335.0429 0001116  86.3740 273.7379 15.08842789 71225
STARLINK-3836           
1 52577U 22051AT  23233.52694050  .00001879  00000+0  13608-3 0  9995
2 52577  53.2171 354.2753 0001144  94.0306 266.0817 15.08840398 70876
STARLINK-3833           
1 52578U 22051AU  23234.52421936  .00003439  00000+0  23399-3 0  9990
2 52578  53.2164 349.7994 0000849  73.8101 286.2985 15.08845646 71023
STARLINK-3893           
1 52579U 22051AV  23233.51958486  .00001794  00000+0  13082-3 0  9994
2 52579  53.2208 354.3055 0001354  98.0809 262.0337 15.08835746 70874
STARLINK-3919           
1 52580U 22051AW  23234.51781686  .00001259  00000+0  97175-4 0  9995
2 52580  53.2175 349.8396 0001207  86.4228 273.6902 15.08845384 71022
STARLINK-3915           
1 52581U 22051AX  23233.53752518  .00000499  00000+0  49425-4 0  9999
2 52581  53.2197 339.2283 0001109  94.3646 265.7473 15.08836311 71089
STARLINK-3886           
1 52582U 22051AY  23234.60471908  .00002872  00000+0  19840-3 0  9994
2 52582  53.2170 334.4333 0001331  68.9397 291.1738 15.08848098 71241
STARLINK-3895           
1 52583U 22051AZ  23233.60008307  .00000707  00000+0  62494-4 0  9992
2 52583  53.2199 338.9490 0000882  79.5233 280.5858 15.08836104 71096
STARLINK-3922           
1 52584U 22051BA  23234.46856141 -.00000100  00000+0  11823-4 0  9993
2 52584  53.2175 335.0441 0001053  68.4979 291.6126 15.08842188 71225
STARLINK-3906           
1 52585U 22051BB  23234.52104119  .00000532  00000+0  51481-4 0  9994
2 52585  53.2191 334.8208 0001293 102.3080 257.8057 15.08839863 71233
STARLINK-3910           
1 52586U 22051BC  23234.52376570  .00000646  00000+0  58680-4 0  9991
2 52586  53.2184 334.8016 0001236  97.6650 262.4482 15.08838464 71239
